{"type":"FeatureCollection","features":[{"type":"Feature","id":1,"geometry":{"type":"Point","coordinates":[-79.057244665445864,35.916064576435843]},"properties":{"OBJECTID":1,"NAME":"FIRE STATION 1","TYPE":"fire station","GlobalID":"{DE45292F-EAA7-485F-9E67-009A224AA3CA}"}},{"type":"Feature","id":2,"geometry":{"type":"Point","coordinates":[-79.058677146457626,35.963901851311213]},"properties":{"OBJECTID":2,"NAME":"FIRE STATION 4","TYPE":"fire station","GlobalID":"{A638C419-7AA5-4417-9C42-7772A25C3B57}"}},{"type":"Feature","id":3,"geometry":{"type":"Point","coordinates":[-79.029995964370215,35.935046727946052]},"properties":{"OBJECTID":3,"NAME":"FIRE STATION 3","TYPE":"fire station","GlobalID":"{769FBF24-5E45-4319-AF27-17FB29402FF6}"}},{"type":"Feature","id":4,"geometry":{"type":"Point","coordinates":[-79.023398711571559,35.906955137433826]},"properties":{"OBJECTID":4,"NAME":"FIRE STATION 2","TYPE":"fire station","GlobalID":"{1FD07E05-0C03-48F4-BB21-3686D98872A2}"}},{"type":"Feature","id":5,"geometry":{"type":"Point","coordinates":[-79.060042606664297,35.885364106393574]},"properties":{"OBJECTID":5,"NAME":"FIRE STATION 5","TYPE":"fire station","GlobalID":"{0976BCE2-A696-41F7-9D44-2A3592EBCCAD}"}}]}