{
"type": "FeatureCollection",
"name": "flood_streets_near_fire",
"crs": { "type": "name", "properties": { "name": "urn:ogc:def:crs:EPSG::2264" } },
"features": [
{ "type": "Feature", "properties": { "OBJECTID": 18738127, "ENABLED": 1, "E911": 62596, "LASTEDITDATE": 1633100441000, "DATEADDED": 1626106110000, "USERNAME": "AHRENN", "ACTIONTYPE": "New", "PREFIXDIRECTION": null, "STREETNAME": "ACCLAIM", "STANDTYPE": "ST", "SUFFIX": null, "STREETTYPE": "ST", "WHOLESTNAME": "Acclaim St", "LL_ADD": 2101, "UL_ADD": 2143, "LR_ADD": 2100, "UR_ADD": 2142, "LBLOCKMIN": 2101, "RBLOCKMIN": 2100, "LBLOCKMAX": 2199, "RBLOCKMAX": 2198, "LSTREETCODE": 21570, "RSTREETCODE": 21570, "L_ZIPCODE": 28205, "R_ZIPCODE": 28205, "L_JURIS": "CHAR", "R_JURIS": "CHAR", "LCOUNTY": "MECK", "RCOUNTY": "MECK", "SUBDIVISIONNAME": null, "SUBDIVISIONPHASE": null, "ROADTYPE": 1, "STREETCLASS": "PV", "MARK": null, "GPS_STAT": "Needed", "TOPO": null, "LUESAFLAG": null, "STNAMECHANGE": null, "BARRIER": 0, "PREVE911": null, "ORIGE911": null, "LIFECYCLESTATUS": "Active", "DIVIDED": 0, "SURFACETYPE": 2, "NUMBEROFLANES": 2, "HOVLANE": 0, "THOROUGHFARETYPE": "LOCAL", "SPEEDLIMIT": 35, "PAVEMENTWIDTH": null, "ONEWAY": 0, "SPEEDHUMP": 0, "MEDIAN": 0, "HANSENSTATUS": "New", "COMPTYPE": 68, "COMPKEY": null, "UNITID": "20470", "UNITID2": "14", "FUNITID": null, "TUNITID": null, "LENGTH": null, "ADDRESSNUMBERS": "EVE", "CFCC": "A41", "MAINT_BY": null, "PAVEMENT_RATING": null, "LOAD_STATUS": null, "FULL_NAME": "2100  - 2142 ACCLAIM ST", "SHAPE.STLength()": 293.10256047461826, "index_right": 76, "STATUS": "EFFECTIVE", "FLD_ZONE": "COMMUNITY FLOODPLAIN - FUTURE CONDITIONS", "DATE": "2014-02-19T00:00:00", "Shape_Leng": 8399.1248563499994, "Shape_Area": 908521.19249000004, "distance_to_fire_ft": 10802.836141970498 }, "geometry": { "type": "LineString", "coordinates": [ [ 1459246.50909248762764, 532616.27420363703277 ], [ 1459136.925650231540203, 532662.12024054385256 ], [ 1459132.764569319086149, 532663.204555968404748 ], [ 1459128.841020739870146, 532664.964066868997179 ], [ 1459125.263928150525317, 532667.350216959952377 ], [ 1459122.132044645491987, 532670.29706145322416 ], [ 1459119.532312325434759, 532673.722251458209939 ], [ 1459117.537237579468638, 532677.531298964633606 ], [ 1459116.201610316056758, 532681.618561122333631 ], [ 1459115.562503984430805, 532685.870849201106466 ], [ 1459115.637635072693229, 532690.170381296309642 ], [ 1459116.425035065505654, 532694.397735048783943 ], [ 1459117.903050486929715, 532698.435784707195126 ], [ 1459163.730386649258435, 532816.895193457137793 ] ] } },
{ "type": "Feature", "properties": { "OBJECTID": 18738984, "ENABLED": 1, "E911": 10179, "LASTEDITDATE": 1604040171000, "DATEADDED": 946512000000, "USERNAME": "SCASTONGIA", "ACTIONTYPE": "New", "PREFIXDIRECTION": null, "STREETNAME": "ANDRILL", "STANDTYPE": "TER", "SUFFIX": null, "STREETTYPE": "TR", "WHOLESTNAME": "Andrill Tr", "LL_ADD": 707, "UL_ADD": 715, "LR_ADD": 706, "UR_ADD": 714, "LBLOCKMIN": 0, "RBLOCKMIN": 0, "LBLOCKMAX": 0, "RBLOCKMAX": 0, "LSTREETCODE": 155, "RSTREETCODE": 155, "L_ZIPCODE": 28216, "R_ZIPCODE": 28216, "L_JURIS": "CHAR", "R_JURIS": "CHAR", "LCOUNTY": "MECK", "RCOUNTY": "MECK", "SUBDIVISIONNAME": null, "SUBDIVISIONPHASE": null, "ROADTYPE": 1, "STREETCLASS": "PU", "MARK": null, "GPS_STAT": "Needed", "TOPO": null, "LUESAFLAG": null, "STNAMECHANGE": null, "BARRIER": 0, "PREVE911": null, "ORIGE911": null, "LIFECYCLESTATUS": "Active", "DIVIDED": 0, "SURFACETYPE": 2, "NUMBEROFLANES": 2, "HOVLANE": 0, "THOROUGHFARETYPE": "EXCOLLMJ", "SPEEDLIMIT": 25, "PAVEMENTWIDTH": 24.0, "ONEWAY": 0, "SPEEDHUMP": 0, "MEDIAN": 0, "HANSENSTATUS": "Added", "COMPTYPE": 68, "COMPKEY": 86938.0, "UNITID": "262", "UNITID2": "30", "FUNITID": null, "TUNITID": null, "LENGTH": null, "ADDRESSNUMBERS": "NON", "CFCC": "A41", "MAINT_BY": "CITY", "PAVEMENT_RATING": 100.0, "LOAD_STATUS": null, "FULL_NAME": "706  - 714 ANDRILL TER", "SHAPE.STLength()": 211.354136429177, "index_right": 165, "STATUS": "EFFECTIVE", "FLD_ZONE": "COMMUNITY FLOODPLAIN - FUTURE CONDITIONS", "DATE": "2015-09-02T00:00:00", "Shape_Leng": 35062.887327900004, "Shape_Area": 2776705.08445, "distance_to_fire_ft": 9334.9099193548172 }, "geometry": { "type": "LineString", "coordinates": [ [ 1448004.247456189943478, 549409.08346553472802 ], [ 1448017.913767439080402, 549435.749750780989416 ], [ 1448032.413738440722227, 549464.16603251430206 ], [ 1448079.49730568821542, 549551.083509612362832 ], [ 1448092.580612852238119, 549574.415812018909492 ], [ 1448104.41359443613328, 549595.165770518477075 ] ] } },
{ "type": "Feature", "properties": { "OBJECTID": 18738985, "ENABLED": 1, "E911": 11346, "LASTEDITDATE": 1604040245000, "DATEADDED": 946512000000, "USERNAME": "SCASTONGIA", "ACTIONTYPE": "New", "PREFIXDIRECTION": null, "STREETNAME": "ANDRILL", "STANDTYPE": "TER", "SUFFIX": null, "STREETTYPE": "TR", "WHOLESTNAME": "Andrill Tr", "LL_ADD": 1001, "UL_ADD": 1099, "LR_ADD": 1000, "UR_ADD": 1098, "LBLOCKMIN": 0, "RBLOCKMIN": 0, "LBLOCKMAX": 0, "RBLOCKMAX": 0, "LSTREETCODE": 155, "RSTREETCODE": 155, "L_ZIPCODE": 28216, "R_ZIPCODE": 28216, "L_JURIS": "CHAR", "R_JURIS": "CHAR", "LCOUNTY": "MECK", "RCOUNTY": "MECK", "SUBDIVISIONNAME": null, "SUBDIVISIONPHASE": null, "ROADTYPE": 1, "STREETCLASS": "PU", "MARK": null, "GPS_STAT": "Needed", "TOPO": null, "LUESAFLAG": null, "STNAMECHANGE": null, "BARRIER": 0, "PREVE911": null, "ORIGE911": null, "LIFECYCLESTATUS": "Active", "DIVIDED": 0, "SURFACETYPE": 2, "NUMBEROFLANES": 2, "HOVLANE": 0, "THOROUGHFARETYPE": "LOCAL", "SPEEDLIMIT": 35, "PAVEMENTWIDTH": 24.0, "ONEWAY": 0, "SPEEDHUMP": 0, "MEDIAN": 0, "HANSENSTATUS": "Added", "COMPTYPE": 68, "COMPKEY": 86965.0, "UNITID": "262", "UNITID2": "80", "FUNITID": null, "TUNITID": null, "LENGTH": null, "ADDRESSNUMBERS": "NON", "CFCC": "A41", "MAINT_BY": "CITY", "PAVEMENT_RATING": 100.0, "LOAD_STATUS": null, "FULL_NAME": "1000  - 1098 ANDRILL TER", "SHAPE.STLength()": 666.48949695988085, "index_right": 165, "STATUS": "EFFECTIVE", "FLD_ZONE": "COMMUNITY FLOODPLAIN - FUTURE CONDITIONS", "DATE": "2015-09-02T00:00:00", "Shape_Leng": 35062.887327900004, "Shape_Area": 2776705.08445, "distance_to_fire_ft": 10045.26051222185 }, "geometry": { "type": "LineString", "coordinates": [ [ 1448575.330631616059691, 550436.916055514011532 ], [ 1448622.33119377749972, 550490.416604684083723 ], [ 1448689.913735781563446, 550570.582782919402234 ], [ 1448711.747353526996449, 550595.832732411683537 ], [ 1448720.580341117922217, 550609.582704925793223 ], [ 1448728.164315451169387, 550624.082675936282612 ], [ 1448734.080642194719985, 550639.166635271743871 ], [ 1448738.747299526119605, 550654.832942514098249 ], [ 1448739.164293441455811, 550656.666600254131481 ], [ 1448761.913591775344685, 550761.582729007350281 ], [ 1448789.913535778177902, 550894.41579667723272 ], [ 1448799.163517288165167, 550941.500348172732629 ], [ 1448801.99750111089088, 550957.41599876084365 ], [ 1448803.331159865716472, 550973.499628003221005 ], [ 1448802.997499114833772, 550989.666590438224375 ], [ 1448801.247502614976838, 551005.749563522869721 ], [ 1448797.747509617591277, 551021.499532009009272 ], [ 1448792.913529790006578, 551036.915839757188223 ], [ 1448792.247520617209375, 551038.665836248896085 ] ] } },
{ "type": "Feature", "properties": { "OBJECTID": 18738987, "ENABLED": 1, "E911": 12013, "LASTEDITDATE": 1604040245000, "DATEADDED": 946512000000, "USERNAME": "SCASTONGIA", "ACTIONTYPE": "New", "PREFIXDIRECTION": null, "STREETNAME": "ANDRILL", "STANDTYPE": "TER", "SUFFIX": null, "STREETTYPE": "TR", "WHOLESTNAME": "Andrill Tr", "LL_ADD": 801, "UL_ADD": 899, "LR_ADD": 800, "UR_ADD": 898, "LBLOCKMIN": 0, "RBLOCKMIN": 0, "LBLOCKMAX": 0, "RBLOCKMAX": 0, "LSTREETCODE": 155, "RSTREETCODE": 155, "L_ZIPCODE": 28216, "R_ZIPCODE": 28216, "L_JURIS": "CHAR", "R_JURIS": "CHAR", "LCOUNTY": "MECK", "RCOUNTY": "MECK", "SUBDIVISIONNAME": null, "SUBDIVISIONPHASE": null, "ROADTYPE": 1, "STREETCLASS": "PU", "MARK": null, "GPS_STAT": "Needed", "TOPO": null, "LUESAFLAG": null, "STNAMECHANGE": null, "BARRIER": 0, "PREVE911": null, "ORIGE911": null, "LIFECYCLESTATUS": "Active", "DIVIDED": 0, "SURFACETYPE": 2, "NUMBEROFLANES": 2, "HOVLANE": 0, "THOROUGHFARETYPE": "EXCOLLMJ", "SPEEDLIMIT": 25, "PAVEMENTWIDTH": 25.0, "ONEWAY": 0, "SPEEDHUMP": 0, "MEDIAN": 0, "HANSENSTATUS": "Added", "COMPTYPE": 68, "COMPKEY": 86940.0, "UNITID": "262", "UNITID2": "50", "FUNITID": null, "TUNITID": null, "LENGTH": null, "ADDRESSNUMBERS": "NON", "CFCC": "A41", "MAINT_BY": "CITY", "PAVEMENT_RATING": 100.0, "LOAD_STATUS": null, "FULL_NAME": "800  - 898 ANDRILL TER", "SHAPE.STLength()": 345.62746539440747, "index_right": 165, "STATUS": "EFFECTIVE", "FLD_ZONE": "COMMUNITY FLOODPLAIN - FUTURE CONDITIONS", "DATE": "2015-09-02T00:00:00", "Shape_Leng": 35062.887327900004, "Shape_Area": 2776705.08445, "distance_to_fire_ft": 9579.1241392136362 }, "geometry": { "type": "LineString", "coordinates": [ [ 1448209.913711534114555, 549778.082727525848895 ], [ 1448238.497315778164193, 549827.499623443349265 ], [ 1448282.081218106672168, 549911.165794699219987 ], [ 1448324.747471362585202, 549990.582958693383262 ], [ 1448375.498026030138135, 550081.415782264433801 ] ] } },
{ "type": "Feature", "properties": { "OBJECTID": 18738988, "ENABLED": 1, "E911": 11676, "LASTEDITDATE": 1604040245000, "DATEADDED": 946512000000, "USERNAME": "SCASTONGIA", "ACTIONTYPE": "New", "PREFIXDIRECTION": null, "STREETNAME": "ANDRILL", "STANDTYPE": "TER", "SUFFIX": null, "STREETTYPE": "TR", "WHOLESTNAME": "Andrill Tr", "LL_ADD": 901, "UL_ADD": 959, "LR_ADD": 900, "UR_ADD": 958, "LBLOCKMIN": 0, "RBLOCKMIN": 0, "LBLOCKMAX": 0, "RBLOCKMAX": 0, "LSTREETCODE": 155, "RSTREETCODE": 155, "L_ZIPCODE": 28216, "R_ZIPCODE": 28216, "L_JURIS": "CHAR", "R_JURIS": "CHAR", "LCOUNTY": "MECK", "RCOUNTY": "MECK", "SUBDIVISIONNAME": null, "SUBDIVISIONPHASE": null, "ROADTYPE": 1, "STREETCLASS": "PU", "MARK": null, "GPS_STAT": "Needed", "TOPO": null, "LUESAFLAG": null, "STNAMECHANGE": null, "BARRIER": 0, "PREVE911": null, "ORIGE911": null, "LIFECYCLESTATUS": "Active", "DIVIDED": 0, "SURFACETYPE": 2, "NUMBEROFLANES": 2, "HOVLANE": 0, "THOROUGHFARETYPE": "EXCOLLMJ", "SPEEDLIMIT": 25, "PAVEMENTWIDTH": 26.0, "ONEWAY": 0, "SPEEDHUMP": 1, "MEDIAN": 0, "HANSENSTATUS": "Added", "COMPTYPE": 68, "COMPKEY": 86941.0, "UNITID": "262", "UNITID2": "60", "FUNITID": null, "TUNITID": null, "LENGTH": null, "ADDRESSNUMBERS": "NON", "CFCC": "A41", "MAINT_BY": "CITY", "PAVEMENT_RATING": 100.0, "LOAD_STATUS": null, "FULL_NAME": "900  - 958 ANDRILL TER", "SHAPE.STLength()": 314.74640948728035, "index_right": 165, "STATUS": "EFFECTIVE", "FLD_ZONE": "COMMUNITY FLOODPLAIN - FUTURE CONDITIONS", "DATE": "2015-09-02T00:00:00", "Shape_Leng": 35062.887327900004, "Shape_Area": 2776705.08445, "distance_to_fire_ft": 9790.3270039687322 }, "geometry": { "type": "LineString", "coordinates": [ [ 1448375.498026030138135, 550081.415782264433801 ], [ 1448388.16433927603066, 550104.166064842720516 ], [ 1448432.913593606092036, 550187.165898841223679 ], [ 1448476.997494932729751, 550273.082721762824804 ], [ 1448504.580445022322237, 550327.499607689213008 ], [ 1448522.080410035792738, 550359.915881431545131 ] ] } },
{ "type": "Feature", "properties": { "OBJECTID": 18738989, "ENABLED": 1, "E911": 12110, "LASTEDITDATE": 1604040339000, "DATEADDED": 946512000000, "USERNAME": "SCASTONGIA", "ACTIONTYPE": "New", "PREFIXDIRECTION": null, "STREETNAME": "ANDRILL", "STANDTYPE": "TER", "SUFFIX": null, "STREETTYPE": "TR", "WHOLESTNAME": "Andrill Tr", "LL_ADD": 717, "UL_ADD": 799, "LR_ADD": 716, "UR_ADD": 798, "LBLOCKMIN": 0, "RBLOCKMIN": 0, "LBLOCKMAX": 0, "RBLOCKMAX": 0, "LSTREETCODE": 155, "RSTREETCODE": 155, "L_ZIPCODE": 28216, "R_ZIPCODE": 28216, "L_JURIS": "CHAR", "R_JURIS": "CHAR", "LCOUNTY": "MECK", "RCOUNTY": "MECK", "SUBDIVISIONNAME": null, "SUBDIVISIONPHASE": null, "ROADTYPE": 1, "STREETCLASS": "PU", "MARK": null, "GPS_STAT": "Needed", "TOPO": null, "LUESAFLAG": null, "STNAMECHANGE": null, "BARRIER": 0, "PREVE911": null, "ORIGE911": null, "LIFECYCLESTATUS": "Active", "DIVIDED": 0, "SURFACETYPE": 2, "NUMBEROFLANES": 2, "HOVLANE": 0, "THOROUGHFARETYPE": "EXCOLLMJ", "SPEEDLIMIT": 25, "PAVEMENTWIDTH": 24.0, "ONEWAY": 0, "SPEEDHUMP": 1, "MEDIAN": 0, "HANSENSTATUS": "Added", "COMPTYPE": 68, "COMPKEY": 86939.0, "UNITID": "262", "UNITID2": "40", "FUNITID": null, "TUNITID": null, "LENGTH": null, "ADDRESSNUMBERS": "NON", "CFCC": "A41", "MAINT_BY": "CITY", "PAVEMENT_RATING": 100.0, "LOAD_STATUS": null, "FULL_NAME": "716  - 798 ANDRILL TER", "SHAPE.STLength()": 211.16486142319937, "index_right": 165, "STATUS": "EFFECTIVE", "FLD_ZONE": "COMMUNITY FLOODPLAIN - FUTURE CONDITIONS", "DATE": "2015-09-02T00:00:00", "Shape_Leng": 35062.887327900004, "Shape_Area": 2776705.08445, "distance_to_fire_ft": 9458.0245019539034 }, "geometry": { "type": "LineString", "coordinates": [ [ 1448104.41359443613328, 549595.165770518477075 ], [ 1448117.081220030086115, 549617.582720438018441 ], [ 1448140.913521436741576, 549659.6666257759789 ], [ 1448184.16376302880235, 549733.665821603382938 ], [ 1448209.913711534114555, 549778.082727525848895 ] ] } },
{ "type": "Feature", "properties": { "OBJECTID": 18738990, "ENABLED": 1, "E911": 12191, "LASTEDITDATE": 1604040339000, "DATEADDED": 946512000000, "USERNAME": "SCASTONGIA", "ACTIONTYPE": "New", "PREFIXDIRECTION": null, "STREETNAME": "ANDRILL", "STANDTYPE": "TER", "SUFFIX": null, "STREETTYPE": "TR", "WHOLESTNAME": "Andrill Tr", "LL_ADD": 701, "UL_ADD": 705, "LR_ADD": 700, "UR_ADD": 704, "LBLOCKMIN": 0, "RBLOCKMIN": 0, "LBLOCKMAX": 0, "RBLOCKMAX": 0, "LSTREETCODE": 155, "RSTREETCODE": 155, "L_ZIPCODE": 28216, "R_ZIPCODE": 28216, "L_JURIS": "CHAR", "R_JURIS": "CHAR", "LCOUNTY": "MECK", "RCOUNTY": "MECK", "SUBDIVISIONNAME": null, "SUBDIVISIONPHASE": null, "ROADTYPE": 1, "STREETCLASS": "PU", "MARK": null, "GPS_STAT": "Needed", "TOPO": null, "LUESAFLAG": null, "STNAMECHANGE": null, "BARRIER": 0, "PREVE911": null, "ORIGE911": null, "LIFECYCLESTATUS": "Active", "DIVIDED": 0, "SURFACETYPE": 2, "NUMBEROFLANES": 2, "HOVLANE": 0, "THOROUGHFARETYPE": "EXCOLLMJ", "SPEEDLIMIT": 25, "PAVEMENTWIDTH": 24.0, "ONEWAY": 0, "SPEEDHUMP": 1, "MEDIAN": 0, "HANSENSTATUS": "Added", "COMPTYPE": 68, "COMPKEY": 95725.0, "UNITID": "262", "UNITID2": "20", "FUNITID": null, "TUNITID": null, "LENGTH": null, "ADDRESSNUMBERS": "NON", "CFCC": "A41", "MAINT_BY": "CITY", "PAVEMENT_RATING": 100.0, "LOAD_STATUS": null, "FULL_NAME": "700  - 704 ANDRILL TER", "SHAPE.STLength()": 370.26028938411343, "index_right": 165, "STATUS": "EFFECTIVE", "FLD_ZONE": "COMMUNITY FLOODPLAIN - FUTURE CONDITIONS", "DATE": "2015-09-02T00:00:00", "Shape_Leng": 35062.887327900004, "Shape_Area": 2776705.08445, "distance_to_fire_ft": 9117.7165798040351 }, "geometry": { "type": "LineString", "coordinates": [ [ 1447838.747459110571072, 549077.915820784401149 ], [ 1447852.998086774721742, 549103.582764197723009 ], [ 1447890.664350025122985, 549180.582938284846023 ], [ 1447930.664270025677979, 549263.332772765890695 ], [ 1447978.997506689745933, 549359.666569603374228 ], [ 1447989.247486185049638, 549379.665873453370295 ], [ 1448004.247456189943478, 549409.08346553472802 ] ] } },
{ "type": "Feature", "properties": { "OBJECTID": 18738991, "ENABLED": 1, "E911": 28292, "LASTEDITDATE": 1604042741000, "DATEADDED": 946512000000, "USERNAME": "SCASTONGIA", "ACTIONTYPE": "ModifyCL", "PREFIXDIRECTION": null, "STREETNAME": "ANDRILL", "STANDTYPE": "TER", "SUFFIX": null, "STREETTYPE": "TR", "WHOLESTNAME": "Andrill Tr", "LL_ADD": 601, "UL_ADD": 699, "LR_ADD": 600, "UR_ADD": 698, "LBLOCKMIN": 601, "RBLOCKMIN": 600, "LBLOCKMAX": 699, "RBLOCKMAX": 698, "LSTREETCODE": 155, "RSTREETCODE": 155, "L_ZIPCODE": 28216, "R_ZIPCODE": 28216, "L_JURIS": "CHAR", "R_JURIS": "CHAR", "LCOUNTY": "MECK", "RCOUNTY": "MECK", "SUBDIVISIONNAME": null, "SUBDIVISIONPHASE": null, "ROADTYPE": 1, "STREETCLASS": "PU", "MARK": null, "GPS_STAT": "Needed", "TOPO": null, "LUESAFLAG": null, "STNAMECHANGE": null, "BARRIER": 0, "PREVE911": null, "ORIGE911": null, "LIFECYCLESTATUS": "Active", "DIVIDED": 0, "SURFACETYPE": 2, "NUMBEROFLANES": 2, "HOVLANE": 0, "THOROUGHFARETYPE": "EXCOLLMJ", "SPEEDLIMIT": 25, "PAVEMENTWIDTH": 24.0, "ONEWAY": 0, "SPEEDHUMP": 1, "MEDIAN": 0, "HANSENSTATUS": "New", "COMPTYPE": 68, "COMPKEY": 86936.0, "UNITID": "262", "UNITID2": "10", "FUNITID": null, "TUNITID": null, "LENGTH": null, "ADDRESSNUMBERS": "NON", "CFCC": "A41", "MAINT_BY": "CITY", "PAVEMENT_RATING": 100.0, "LOAD_STATUS": null, "FULL_NAME": "600  - 698 ANDRILL TER", "SHAPE.STLength()": 504.80260370032278, "index_right": 165, "STATUS": "EFFECTIVE", "FLD_ZONE": "COMMUNITY FLOODPLAIN - FUTURE CONDITIONS", "DATE": "2015-09-02T00:00:00", "Shape_Leng": 35062.887327900004, "Shape_Area": 2776705.08445, "distance_to_fire_ft": 8904.51913864374 }, "geometry": { "type": "LineString", "coordinates": [ [ 1447552.383530518971384, 548667.371038209181279 ], [ 1447578.033413595054299, 548690.429391031968407 ], [ 1447602.816500523593277, 548714.416875869384967 ], [ 1447626.699326775269583, 548739.301012445823289 ], [ 1447652.497503528837115, 548770.165780111216009 ], [ 1447677.247454024618492, 548799.832715528900735 ], [ 1447700.913745263824239, 548830.499648946570233 ], [ 1447721.248022192856297, 548859.166586369043216 ], [ 1447743.830654182238504, 548893.249523457023315 ], [ 1447764.914273435715586, 548930.41578769555781 ], [ 1447812.581172848818824, 549027.08291720575653 ], [ 1447823.997488597873598, 549050.332870702841319 ], [ 1447831.830478186020628, 549065.749834618181922 ], [ 1447838.747459110571072, 549077.915820784401149 ] ] } },
{ "type": "Feature", "properties": { "OBJECTID": 18739025, "ENABLED": 1, "E911": 54934, "LASTEDITDATE": 1649681936000, "DATEADDED": 1550232899000, "USERNAME": "MAHMOMM", "ACTIONTYPE": "NameChange", "PREFIXDIRECTION": null, "STREETNAME": "ANKER HAUS", "STANDTYPE": "DR", "SUFFIX": null, "STREETTYPE": "DR", "WHOLESTNAME": "Anker Haus Dr", "LL_ADD": 4001, "UL_ADD": 4051, "LR_ADD": 4000, "UR_ADD": 4050, "LBLOCKMIN": 4001, "RBLOCKMIN": 4000, "LBLOCKMAX": 4099, "RBLOCKMAX": 4098, "LSTREETCODE": 20578, "RSTREETCODE": 20578, "L_ZIPCODE": 28205, "R_ZIPCODE": 28205, "L_JURIS": "CHAR", "R_JURIS": "CHAR", "LCOUNTY": "MECK", "RCOUNTY": "MECK", "SUBDIVISIONNAME": null, "SUBDIVISIONPHASE": null, "ROADTYPE": 1, "STREETCLASS": "PV", "MARK": null, "GPS_STAT": "Needed", "TOPO": null, "LUESAFLAG": null, "STNAMECHANGE": null, "BARRIER": 0, "PREVE911": null, "ORIGE911": null, "LIFECYCLESTATUS": "Active", "DIVIDED": 0, "SURFACETYPE": 2, "NUMBEROFLANES": 2, "HOVLANE": 0, "THOROUGHFARETYPE": "LOCAL", "SPEEDLIMIT": 35, "PAVEMENTWIDTH": 32.0, "ONEWAY": 0, "SPEEDHUMP": 0, "MEDIAN": 0, "HANSENSTATUS": "New", "COMPTYPE": 68, "COMPKEY": 239403.0, "UNITID": "19407", "UNITID2": "60", "FUNITID": null, "TUNITID": null, "LENGTH": null, "ADDRESSNUMBERS": "BOT", "CFCC": "A31", "MAINT_BY": null, "PAVEMENT_RATING": 92.0, "LOAD_STATUS": null, "FULL_NAME": "4000  - 4050 ANKER HAUS DR", "SHAPE.STLength()": 304.98166316311648, "index_right": 248, "STATUS": "EFFECTIVE", "FLD_ZONE": "COMMUNITY FLOODPLAIN - FUTURE CONDITIONS", "DATE": "2014-02-19T00:00:00", "Shape_Leng": 77234.056629400002, "Shape_Area": 13180353.7149, "distance_to_fire_ft": 11955.764645681886 }, "geometry": { "type": "LineString", "coordinates": [ [ 1463256.941688438877463, 536553.076041254797019 ], [ 1463269.21430169348605, 536571.835846242378466 ], [ 1463304.469808614579961, 536625.726486501283944 ], [ 1463304.781815861817449, 536626.221564255072735 ], [ 1463305.076762784970924, 536626.727796821505763 ], [ 1463305.354321276303381, 536627.243543824646622 ], [ 1463305.613507110392675, 536627.768477157806046 ], [ 1463305.854976448463276, 536628.302268751314841 ], [ 1463306.077416945714504, 536628.843934331322089 ], [ 1463306.281156692653894, 536629.392817758605815 ], [ 1463306.466195691376925, 536629.94826282421127 ], [ 1463306.631877785315737, 536630.510269579477608 ], [ 1463306.777874862775207, 536631.077197587816045 ], [ 1463306.904843113850802, 536631.64904682605993 ], [ 1463307.011798282153904, 536632.224833085434511 ], [ 1463307.09874035930261, 536632.803900170954876 ], [ 1463307.165997450007126, 536633.385920008528046 ], [ 1463307.212913369759917, 536633.969580245087855 ], [ 1463307.43108878354542, 536637.415767578291707 ], [ 1463307.574133117217571, 536639.190370335942134 ], [ 1463307.779841367620975, 536640.958411408704706 ], [ 1463308.046245029428974, 536642.718578490428627 ], [ 1463308.3743283636868, 536644.468575000646524 ], [ 1463308.763107112143189, 536646.205448159831576 ], [ 1463309.212253190111369, 536647.927885652403347 ], [ 1463309.721766611561179, 536649.633262823917903 ], [ 1463310.290006942581385, 536651.320923502440564 ], [ 1463310.917302285786718, 536652.98660257877782 ], [ 1463311.601684112567455, 536654.630300076212734 ], [ 1463312.343152438057587, 536656.248407071107067 ], [ 1463313.141051123617217, 536657.839611243107356 ], [ 1463313.993739696452394, 536659.402272165287286 ], [ 1463314.899905866011977, 536660.934749410487711 ], [ 1463315.859877696493641, 536662.434090245631523 ], [ 1463335.279130195500329, 536691.641708997543901 ], [ 1463335.91429952881299, 536692.561654668184929 ], [ 1463336.580964870983735, 536693.457650258671492 ], [ 1463337.278141952119768, 536694.331008075154386 ], [ 1463338.006158862030134, 536695.179759653750807 ], [ 1463338.762390946736559, 536696.00160842796322 ], [ 1463339.547494362574071, 536696.797210499993525 ], [ 1463340.359828702406958, 536697.56459740572609 ], [ 1463341.198081618407741, 536698.302784913219512 ], [ 1463342.061596948187798, 536699.012101091910154 ], [ 1463342.949718525400385, 536699.690249319770373 ], [ 1463343.8611340301577, 536700.337229666765779 ], [ 1463344.794203035067767, 536700.951401654514484 ], [ 1463345.748597449623048, 536701.53342150116805 ], [ 1463346.722348784096539, 536702.081648747436702 ], [ 1463347.714800871210173, 536702.594771082280204 ], [ 1463348.724313279613853, 536703.074100835132413 ], [ 1463349.749901776667684, 536703.517013323842548 ], [ 1463350.790582112502307, 536703.924164752475917 ], [ 1463351.844713859027252, 536704.294570837984793 ], [ 1463352.910984699381515, 536704.627903487649746 ], [ 1463353.988738449988887, 536704.924162743147463 ], [ 1463355.076006611576304, 536705.182036251644604 ], [ 1463356.171804941724986, 536705.40283631964121 ], [ 1463357.274164952104911, 536705.583938329713419 ], [ 1463358.382430441910401, 536705.727310759946704 ], [ 1463359.494961029151455, 536705.831641248310916 ], [ 1463360.610444356687367, 536705.897257901611738 ], [ 1463361.727240032050759, 536705.923504566657357 ], [ 1463362.845019943779334, 536705.911037415149622 ], [ 1463363.961159442784265, 536705.859528340399265 ], [ 1463365.07500236434862, 536705.768977323779836 ], [ 1463366.184908278053626, 536705.639712495263666 ], [ 1463367.289892945671454, 536705.471405724878423 ], [ 1463368.38798785675317, 536705.265369407134131 ], [ 1463369.477880691876635, 536705.02094732853584 ], [ 1463370.559243356343359, 536704.738467577262782 ], [ 1463371.40372986276634, 536704.517339397920296 ], [ 1463372.255434190155938, 536704.32606683508493 ], [ 1463373.113700203830376, 536704.164649828569964 ], [ 1463373.976887439377606, 536704.033416498685256 ], [ 1463374.843683608341962, 536703.932038762257434 ], [ 1463375.713760623708367, 536703.862156999646686 ], [ 1463376.586134206969291, 536703.82147465867456 ], [ 1463377.458507781149819, 536703.811632142984308 ], [ 1463378.33186561637558, 536703.832301406306215 ], [ 1463379.202926866244525, 536703.883482411503792 ], [ 1463380.072347693145275, 536703.965175163117237 ], [ 1463380.938159605721012, 536704.077051572967321 ], [ 1463381.799378355033696, 536704.21911167842336 ], [ 1463382.655019692378119, 536704.391027325997129 ], [ 1463383.504099361598492, 536704.592798571567982 ], [ 1463384.346289283595979, 536704.824097331613302 ], [ 1463385.179949034703895, 536705.084595508407801 ], [ 1463386.003110116347671, 536705.373965000151657 ], [ 1463386.816100617172197, 536705.692205825238489 ], [ 1463387.617936274502426, 536706.038333737873472 ], [ 1463388.405992438085377, 536706.41202067269478 ], [ 1463389.181909521110356, 536706.813266579061747 ], [ 1463389.942406691610813, 536707.241415340686217 ], [ 1463390.688140116631985, 536707.695810748729855 ], [ 1463391.416813200339675, 536708.17645282659214 ], [ 1463392.12875402579084, 536708.681701160850935 ], [ 1463392.822322196094319, 536709.211555751855485 ], [ 1463393.497517695650458, 536709.765360409044661 ], [ 1463394.152372024720535, 536710.342787081608549 ], [ 1463394.786885192617774, 536710.942195323645137 ], [ 1463395.399744859430939, 536711.563585163443349 ], [ 1463395.991279117064551, 536712.205972331343219 ], [ 1463396.55984752625227, 536712.86837257235311 ], [ 1463397.10413778340444, 536713.550457835430279 ], [ 1463397.625462196068838, 536714.250915748998523 ], [ 1463398.121196110965684, 536714.969746341230348 ], [ 1463421.130992610706016, 536749.577288650907576 ], [ 1463438.260551533661783, 536775.339704338693991 ] ] } },
{ "type": "Feature", "properties": { "OBJECTID": 18739028, "ENABLED": 1, "E911": 54947, "LASTEDITDATE": 1717614438000, "DATEADDED": 1550233620000, "USERNAME": "SDE", "ACTIONTYPE": "NameChange", "PREFIXDIRECTION": null, "STREETNAME": "ANKER HAUS", "STANDTYPE": "DR", "SUFFIX": null, "STREETTYPE": "DR", "WHOLESTNAME": "Anker Haus Dr", "LL_ADD": 4101, "UL_ADD": 4199, "LR_ADD": 4100, "UR_ADD": 4198, "LBLOCKMIN": 4101, "RBLOCKMIN": 4100, "LBLOCKMAX": 4199, "RBLOCKMAX": 4198, "LSTREETCODE": 20578, "RSTREETCODE": 20578, "L_ZIPCODE": 28205, "R_ZIPCODE": 28205, "L_JURIS": "CHAR", "R_JURIS": "CHAR", "LCOUNTY": "MECK", "RCOUNTY": "MECK", "SUBDIVISIONNAME": null, "SUBDIVISIONPHASE": null, "ROADTYPE": 1, "STREETCLASS": "PV", "MARK": null, "GPS_STAT": "Needed", "TOPO": null, "LUESAFLAG": null, "STNAMECHANGE": null, "BARRIER": 0, "PREVE911": null, "ORIGE911": null, "LIFECYCLESTATUS": "Active", "DIVIDED": 0, "SURFACETYPE": 2, "NUMBEROFLANES": 2, "HOVLANE": 0, "THOROUGHFARETYPE": "LOCAL", "SPEEDLIMIT": 35, "PAVEMENTWIDTH": 32.0, "ONEWAY": 0, "SPEEDHUMP": 0, "MEDIAN": 0, "HANSENSTATUS": "New", "COMPTYPE": 68, "COMPKEY": 239409.0, "UNITID": "19407", "UNITID2": "63", "FUNITID": null, "TUNITID": null, "LENGTH": null, "ADDRESSNUMBERS": "BOT", "CFCC": "A31", "MAINT_BY": null, "PAVEMENT_RATING": 92.0, "LOAD_STATUS": null, "FULL_NAME": "4100  - 4198 ANKER HAUS DR", "SHAPE.STLength()": 264.65221927616528, "index_right": 248, "STATUS": "EFFECTIVE", "FLD_ZONE": "COMMUNITY FLOODPLAIN - FUTURE CONDITIONS", "DATE": "2014-02-19T00:00:00", "Shape_Leng": 77234.056629400002, "Shape_Area": 13180353.7149, "distance_to_fire_ft": 12042.987514766481 }, "geometry": { "type": "LineString", "coordinates": [ [ 1463438.260551533661783, 536775.339704338693991 ], [ 1463473.770651110215113, 536828.747733990894631 ], [ 1463485.40612653689459, 536839.023960154037923 ], [ 1463595.244817621307448, 536987.87897740630433 ] ] } },
{ "type": "Feature", "properties": { "OBJECTID": 18739521, "ENABLED": 1, "E911": 32625, "LASTEDITDATE": 1709736724000, "DATEADDED": 946512000000, "USERNAME": "LEWISNK", "ACTIONTYPE": "AddressChange", "PREFIXDIRECTION": null, "STREETNAME": "ARNOLD", "STANDTYPE": "DR", "SUFFIX": null, "STREETTYPE": "DR", "WHOLESTNAME": "Arnold Dr", "LL_ADD": 1601, "UL_ADD": 1733, "LR_ADD": 1600, "UR_ADD": 1732, "LBLOCKMIN": 1601, "RBLOCKMIN": 1600, "LBLOCKMAX": 1799, "RBLOCKMAX": 1798, "LSTREETCODE": 235, "RSTREETCODE": 235, "L_ZIPCODE": 28205, "R_ZIPCODE": 28205, "L_JURIS": "CHAR", "R_JURIS": "CHAR", "LCOUNTY": "MECK", "RCOUNTY": "MECK", "SUBDIVISIONNAME": null, "SUBDIVISIONPHASE": null, "ROADTYPE": 1, "STREETCLASS": "PU", "MARK": null, "GPS_STAT": "Needed", "TOPO": null, "LUESAFLAG": null, "STNAMECHANGE": null, "BARRIER": 0, "PREVE911": null, "ORIGE911": null, "LIFECYCLESTATUS": "Active", "DIVIDED": 0, "SURFACETYPE": 2, "NUMBEROFLANES": 2, "HOVLANE": 0, "THOROUGHFARETYPE": "EXCOLLMJ", "SPEEDLIMIT": 25, "PAVEMENTWIDTH": 27.0, "ONEWAY": 0, "SPEEDHUMP": 0, "MEDIAN": 0, "HANSENSTATUS": "Other", "COMPTYPE": 68, "COMPKEY": 87261.0, "UNITID": "383", "UNITID2": "115", "FUNITID": null, "TUNITID": null, "LENGTH": null, "ADDRESSNUMBERS": "NON", "CFCC": "A41", "MAINT_BY": "CITY", "PAVEMENT_RATING": 95.0, "LOAD_STATUS": null, "FULL_NAME": "1600  - 1732 ARNOLD DR", "SHAPE.STLength()": 1027.1842407588651, "index_right": 248, "STATUS": "EFFECTIVE", "FLD_ZONE": "COMMUNITY FLOODPLAIN - FUTURE CONDITIONS", "DATE": "2014-02-19T00:00:00", "Shape_Leng": 77234.056629400002, "Shape_Area": 13180353.7149, "distance_to_fire_ft": 12071.628201720459 }, "geometry": { "type": "LineString", "coordinates": [ [ 1464095.163765279110521, 539099.832758704083972 ], [ 1464144.247328532161191, 539184.166579542332329 ], [ 1464169.997277033282444, 539238.915813881554641 ], [ 1464193.081220371183008, 539283.582719298196025 ], [ 1464201.99754111468792, 539301.250334888696671 ], [ 1464212.497520119184628, 539318.582649304880761 ], [ 1464224.497496128780767, 539335.166605628561229 ], [ 1464237.74746961845085, 539350.582913381513208 ], [ 1464252.163779377471656, 539364.915889960364439 ], [ 1464267.748065785504878, 539377.915863964124583 ], [ 1464284.248032794101164, 539389.74982978682965 ], [ 1464301.747341623064131, 539400.165819456684403 ], [ 1464315.747313619125634, 539407.165805470081978 ], [ 1464335.330607791198418, 539414.083442560164258 ], [ 1464355.163573370315135, 539419.332775886752643 ], [ 1464375.331183956703171, 539422.999763301806524 ], [ 1464395.830486788647249, 539425.082764387596399 ], [ 1464416.330445786705241, 539425.415768962819129 ], [ 1464436.913737952476367, 539424.16577147343196 ], [ 1464457.24735871097073, 539421.165777455084026 ], [ 1464477.247318700421602, 539416.665786453057081 ], [ 1464496.914274127222598, 539410.499788295826875 ], [ 1464525.913559961598366, 539398.999811299028806 ], [ 1464553.997493284055963, 539386.083498543594033 ], [ 1464570.413470955565572, 539377.83351503603626 ], [ 1464687.497226287145168, 539321.249638724722899 ], [ 1464697.081196625484154, 539316.666642627678812 ], [ 1464706.413527046563104, 539313.666648623184301 ], [ 1464716.163507541175932, 539312.082662298460491 ], [ 1464725.913488049991429, 539311.665996470255777 ], [ 1464735.66346854576841, 539312.749655727646314 ], [ 1464745.080444460967556, 539315.08265628432855 ], [ 1464754.413759128656238, 539318.74964371335227 ], [ 1464759.998065551044419, 539321.832642789580859 ], [ 1464767.830398966325447, 539327.916620134958066 ], [ 1464774.998035543598235, 539335.166605637874454 ], [ 1464780.998023545136675, 539343.249594709137455 ], [ 1464785.997357377782464, 539352.166571631911211 ], [ 1464789.580355457495898, 539361.582891380647197 ], [ 1464792.247344871982932, 539372.082870368263684 ], [ 1464807.664308789651841, 539447.082720372010954 ], [ 1464812.580637551145628, 539478.166647706064396 ] ] } },
{ "type": "Feature", "properties": { "OBJECTID": 18740231, "ENABLED": 1, "E911": 15072, "LASTEDITDATE": 1706784474000, "DATEADDED": 946512000000, "USERNAME": "SCASTONGIA", "ACTIONTYPE": "ModifyCL", "PREFIXDIRECTION": null, "STREETNAME": "BALDWIN", "STANDTYPE": "AVE", "SUFFIX": null, "STREETTYPE": "AV", "WHOLESTNAME": "Baldwin Av", "LL_ADD": 701, "UL_ADD": 799, "LR_ADD": 700, "UR_ADD": 798, "LBLOCKMIN": 0, "RBLOCKMIN": 0, "LBLOCKMAX": 0, "RBLOCKMAX": 0, "LSTREETCODE": 371, "RSTREETCODE": 371, "L_ZIPCODE": 28204, "R_ZIPCODE": 28204, "L_JURIS": "CHAR", "R_JURIS": "CHAR", "LCOUNTY": "MECK", "RCOUNTY": "MECK", "SUBDIVISIONNAME": null, "SUBDIVISIONPHASE": null, "ROADTYPE": 1, "STREETCLASS": "PU", "MARK": null, "GPS_STAT": "Needed", "TOPO": null, "LUESAFLAG": null, "STNAMECHANGE": null, "BARRIER": 0, "PREVE911": null, "ORIGE911": null, "LIFECYCLESTATUS": "Active", "DIVIDED": 0, "SURFACETYPE": 2, "NUMBEROFLANES": 2, "HOVLANE": 0, "THOROUGHFARETYPE": "EXCOLLMJ", "SPEEDLIMIT": 25, "PAVEMENTWIDTH": 30.0, "ONEWAY": 0, "SPEEDHUMP": 0, "MEDIAN": 0, "HANSENSTATUS": "Other", "COMPTYPE": 68, "COMPKEY": 87718.0, "UNITID": "573", "UNITID2": "70", "FUNITID": null, "TUNITID": null, "LENGTH": null, "ADDRESSNUMBERS": "NON", "CFCC": "A41", "MAINT_BY": "CITY", "PAVEMENT_RATING": 95.0, "LOAD_STATUS": null, "FULL_NAME": "700  - 798 BALDWIN AVE", "SHAPE.STLength()": 686.16182693945484, "index_right": 224, "STATUS": "EFFECTIVE", "FLD_ZONE": "COMMUNITY FLOODPLAIN - FUTURE CONDITIONS", "DATE": "2014-02-19T00:00:00", "Shape_Leng": 8122.3965317599996, "Shape_Area": 914868.70388000004, "distance_to_fire_ft": 5320.1847057325076 }, "geometry": { "type": "LineString", "coordinates": [ [ 1452125.080421912483871, 535742.416573343100026 ], [ 1451709.57239465136081, 535335.972832434461452 ], [ 1451703.220701319165528, 535331.368510934873484 ], [ 1451696.227605073014274, 535327.813728013308719 ], [ 1451688.764693480683491, 535325.396081929909997 ], [ 1451681.015365151222795, 535324.174627685686573 ], [ 1451673.170564576052129, 535324.179548929445446 ], [ 1451608.056849656626582, 535332.896066936198622 ] ] } },
{ "type": "Feature", "properties": { "OBJECTID": 18741261, "ENABLED": 1, "E911": 14862, "LASTEDITDATE": 1706784474000, "DATEADDED": 946512000000, "USERNAME": "SCASTONGIA", "ACTIONTYPE": "New", "PREFIXDIRECTION": null, "STREETNAME": "BELMONT", "STANDTYPE": "AVE", "SUFFIX": null, "STREETTYPE": "AV", "WHOLESTNAME": "Belmont Av", "LL_ADD": 701, "UL_ADD": 799, "LR_ADD": 700, "UR_ADD": 798, "LBLOCKMIN": 0, "RBLOCKMIN": 0, "LBLOCKMAX": 0, "RBLOCKMAX": 0, "LSTREETCODE": 580, "RSTREETCODE": 580, "L_ZIPCODE": 28206, "R_ZIPCODE": 28206, "L_JURIS": "CHAR", "R_JURIS": "CHAR", "LCOUNTY": "MECK", "RCOUNTY": "MECK", "SUBDIVISIONNAME": null, "SUBDIVISIONPHASE": null, "ROADTYPE": 1, "STREETCLASS": "PU", "MARK": null, "GPS_STAT": "Needed", "TOPO": null, "LUESAFLAG": null, "STNAMECHANGE": null, "BARRIER": 0, "PREVE911": null, "ORIGE911": null, "LIFECYCLESTATUS": "Active", "DIVIDED": 0, "SURFACETYPE": 2, "NUMBEROFLANES": 2, "HOVLANE": 0, "THOROUGHFARETYPE": "EXCOLLMJ", "SPEEDLIMIT": 25, "PAVEMENTWIDTH": 26.0, "ONEWAY": 0, "SPEEDHUMP": 1, "MEDIAN": 0, "HANSENSTATUS": "Added", "COMPTYPE": 68, "COMPKEY": 88522.0, "UNITID": "844", "UNITID2": "40", "FUNITID": null, "TUNITID": null, "LENGTH": null, "ADDRESSNUMBERS": "NON", "CFCC": "A41", "MAINT_BY": "CITY", "PAVEMENT_RATING": 95.0, "LOAD_STATUS": null, "FULL_NAME": "700  - 798 BELMONT AVE", "SHAPE.STLength()": 437.98878050375379, "index_right": 244, "STATUS": "LOMR", "FLD_ZONE": "COMMUNITY FLOODPLAIN - FUTURE CONDITIONS", "DATE": "2017-01-02T00:00:00", "Shape_Leng": 27827.864269599999, "Shape_Area": 1647236.12157, "distance_to_fire_ft": 3896.3061830194515 }, "geometry": { "type": "LineString", "coordinates": [ [ 1454968.91430118936114, 543792.332888081786223 ], [ 1454984.414270178647712, 543775.249588927603327 ], [ 1455061.997448353562504, 543688.999761421233416 ], [ 1455164.580576526466757, 543575.08266642736271 ], [ 1455183.247533936984837, 543553.250361009151675 ], [ 1455203.663503605872393, 543531.832752927090041 ], [ 1455225.080455516232178, 543511.665798506350257 ], [ 1455239.163760697469115, 543499.41582301305607 ], [ 1455256.248044106876478, 543486.499838336487301 ], [ 1455271.247357939835638, 543476.915868007694371 ] ] } },
{ "type": "Feature", "properties": { "OBJECTID": 18741328, "ENABLED": 1, "E911": 11820, "LASTEDITDATE": 1604040245000, "DATEADDED": 946512000000, "USERNAME": "SCASTONGIA", "ACTIONTYPE": "New", "PREFIXDIRECTION": null, "STREETNAME": "BENARD", "STANDTYPE": "AVE", "SUFFIX": null, "STREETTYPE": "AV", "WHOLESTNAME": "Benard Av", "LL_ADD": 3201, "UL_ADD": 3299, "LR_ADD": 3200, "UR_ADD": 3298, "LBLOCKMIN": 0, "RBLOCKMIN": 0, "LBLOCKMAX": 0, "RBLOCKMAX": 0, "LSTREETCODE": 592, "RSTREETCODE": 592, "L_ZIPCODE": 28206, "R_ZIPCODE": 28206, "L_JURIS": "CHAR", "R_JURIS": "CHAR", "LCOUNTY": "MECK", "RCOUNTY": "MECK", "SUBDIVISIONNAME": null, "SUBDIVISIONPHASE": null, "ROADTYPE": 1, "STREETCLASS": "PU", "MARK": null, "GPS_STAT": "Needed", "TOPO": null, "LUESAFLAG": null, "STNAMECHANGE": null, "BARRIER": 0, "PREVE911": null, "ORIGE911": null, "LIFECYCLESTATUS": "Active", "DIVIDED": 0, "SURFACETYPE": 2, "NUMBEROFLANES": 2, "HOVLANE": 0, "THOROUGHFARETYPE": "LOCAL", "SPEEDLIMIT": 35, "PAVEMENTWIDTH": 42.0, "ONEWAY": 0, "SPEEDHUMP": 0, "MEDIAN": 0, "HANSENSTATUS": "Added", "COMPTYPE": 68, "COMPKEY": 88462.0, "UNITID": "858", "UNITID2": "10", "FUNITID": null, "TUNITID": null, "LENGTH": null, "ADDRESSNUMBERS": "NON", "CFCC": "A41", "MAINT_BY": "CITY", "PAVEMENT_RATING": 100.0, "LOAD_STATUS": null, "FULL_NAME": "3200  - 3298 BENARD AVE", "SHAPE.STLength()": 568.97092945856843, "index_right": 229, "STATUS": "EFFECTIVE", "FLD_ZONE": "COMMUNITY FLOODPLAIN - FUTURE CONDITIONS", "DATE": "2014-02-19T00:00:00", "Shape_Leng": 58768.949349199997, "Shape_Area": 6510426.1211900003, "distance_to_fire_ft": 12756.596792133783 }, "geometry": { "type": "LineString", "coordinates": [ [ 1459913.997258819406852, 551210.165821326663718 ], [ 1459935.997214814880863, 551208.499814166803844 ], [ 1459958.081160149769858, 551208.333475920837373 ], [ 1459980.163465075427666, 551209.833472918486223 ], [ 1460002.080415987642482, 551212.833466927404515 ], [ 1460169.248060652986169, 551258.000371341826394 ], [ 1460264.997541062068194, 551281.41600692702923 ], [ 1460306.41346874483861, 551295.499640169553459 ], [ 1460347.163715328322724, 551311.082942326087505 ], [ 1460387.330629748525098, 551328.16656957322266 ], [ 1460409.997251074993983, 551338.499554175650701 ], [ 1460456.163497326662764, 551364.333492001984268 ] ] } },
{ "type": "Feature", "properties": { "OBJECTID": 18741329, "ENABLED": 1, "E911": 37609, "LASTEDITDATE": 1604042958000, "DATEADDED": 946512000000, "USERNAME": "SCASTONGIA", "ACTIONTYPE": "ModifyCL", "PREFIXDIRECTION": null, "STREETNAME": "BENARD", "STANDTYPE": "AVE", "SUFFIX": null, "STREETTYPE": "AV", "WHOLESTNAME": "Benard Av", "LL_ADD": 3301, "UL_ADD": 3421, "LR_ADD": 3300, "UR_ADD": 3420, "LBLOCKMIN": 0, "RBLOCKMIN": 0, "LBLOCKMAX": 0, "RBLOCKMAX": 0, "LSTREETCODE": 592, "RSTREETCODE": 592, "L_ZIPCODE": 28206, "R_ZIPCODE": 28206, "L_JURIS": "CHAR", "R_JURIS": "CHAR", "LCOUNTY": "MECK", "RCOUNTY": "MECK", "SUBDIVISIONNAME": null, "SUBDIVISIONPHASE": null, "ROADTYPE": 1, "STREETCLASS": "PU", "MARK": null, "GPS_STAT": "Needed", "TOPO": null, "LUESAFLAG": null, "STNAMECHANGE": null, "BARRIER": 0, "PREVE911": null, "ORIGE911": null, "LIFECYCLESTATUS": "Active", "DIVIDED": 0, "SURFACETYPE": 2, "NUMBEROFLANES": 2, "HOVLANE": 0, "THOROUGHFARETYPE": "LOCAL", "SPEEDLIMIT": 35, "PAVEMENTWIDTH": 26.0, "ONEWAY": 0, "SPEEDHUMP": 0, "MEDIAN": 0, "HANSENSTATUS": "Other", "COMPTYPE": 68, "COMPKEY": 88572.0, "UNITID": "858", "UNITID2": "20", "FUNITID": null, "TUNITID": null, "LENGTH": null, "ADDRESSNUMBERS": "NON", "CFCC": "A41", "MAINT_BY": "CITY", "PAVEMENT_RATING": 80.0, "LOAD_STATUS": null, "FULL_NAME": "3300  - 3420 BENARD AVE", "SHAPE.STLength()": 915.71243827943431, "index_right": 229, "STATUS": "EFFECTIVE", "FLD_ZONE": "COMMUNITY FLOODPLAIN - FUTURE CONDITIONS", "DATE": "2014-02-19T00:00:00", "Shape_Leng": 58768.949349199997, "Shape_Area": 6510426.1211900003, "distance_to_fire_ft": 13212.084903905135 }, "geometry": { "type": "LineString", "coordinates": [ [ 1460456.163497326662764, 551364.333492001984268 ], [ 1460484.99808531650342, 551365.083490498480387 ], [ 1460519.16369940363802, 551362.415844920906238 ], [ 1460589.247220667311922, 551349.165871409117244 ], [ 1460628.330475821625441, 551341.915885901544243 ], [ 1460667.830396830802783, 551336.165897410130128 ], [ 1460691.66433866485022, 551333.415902909240685 ], [ 1460715.497296246467158, 551332.249566653976217 ], [ 1460734.830590904923156, 551332.415904909255914 ], [ 1460754.247218747157604, 551334.165901419590227 ], [ 1460773.247508825967088, 551337.415894899633713 ], [ 1460791.997471334412694, 551342.332879827357829 ], [ 1460820.248071003705263, 551352.333515998325311 ], [ 1460847.830364916473627, 551363.833492985810153 ], [ 1460874.747305827913806, 551376.833467003423721 ], [ 1460878.664292741101235, 551378.833462993963622 ], [ 1460952.247478922596201, 551417.916061997995712 ], [ 1461057.497268414357677, 551471.166611673892476 ], [ 1461111.247488998109475, 551498.915900010615587 ], [ 1461165.580385586479679, 551525.415847001597285 ], [ 1461220.580603666137904, 551550.415796981193125 ], [ 1461250.497538588941097, 551563.749759834026918 ], [ 1461281.080482666846365, 551575.666074584936723 ], [ 1461312.163753830129281, 551586.082720421720296 ], [ 1461313.248069253051654, 551586.416053085355088 ] ] } },
{ "type": "Feature", "properties": { "OBJECTID": 18741566, "ENABLED": 1, "E911": 13420, "LASTEDITDATE": 1738664916000, "DATEADDED": 946512000000, "USERNAME": "WISMESE", "ACTIONTYPE": "ModifyCL", "PREFIXDIRECTION": null, "STREETNAME": "BERRYHILL", "STANDTYPE": "RD", "SUFFIX": null, "STREETTYPE": "RD", "WHOLESTNAME": "Berryhill Rd", "LL_ADD": 1601, "UL_ADD": 1699, "LR_ADD": 1600, "UR_ADD": 1698, "LBLOCKMIN": 0, "RBLOCKMIN": 0, "LBLOCKMAX": 0, "RBLOCKMAX": 0, "LSTREETCODE": 632, "RSTREETCODE": 632, "L_ZIPCODE": 28208, "R_ZIPCODE": 28208, "L_JURIS": "CHAR", "R_JURIS": "CHAR", "LCOUNTY": "MECK", "RCOUNTY": "MECK", "SUBDIVISIONNAME": null, "SUBDIVISIONPHASE": null, "ROADTYPE": 1, "STREETCLASS": "PU", "MARK": null, "GPS_STAT": "Needed", "TOPO": null, "LUESAFLAG": null, "STNAMECHANGE": null, "BARRIER": 0, "PREVE911": null, "ORIGE911": null, "LIFECYCLESTATUS": "Active", "DIVIDED": 0, "SURFACETYPE": 2, "NUMBEROFLANES": 2, "HOVLANE": 0, "THOROUGHFARETYPE": "EXCOLLMJ", "SPEEDLIMIT": 25, "PAVEMENTWIDTH": 24.0, "ONEWAY": 0, "SPEEDHUMP": 0, "MEDIAN": 0, "HANSENSTATUS": "Other", "COMPTYPE": 68, "COMPKEY": 88699.0, "UNITID": "906", "UNITID2": "123", "FUNITID": null, "TUNITID": null, "LENGTH": null, "ADDRESSNUMBERS": "NON", "CFCC": "A21", "MAINT_BY": "CITY", "PAVEMENT_RATING": 100.0, "LOAD_STATUS": null, "FULL_NAME": "1600  - 1698 BERRYHILL RD", "SHAPE.STLength()": 554.96864577554049, "index_right": 152, "STATUS": "EFFECTIVE", "FLD_ZONE": "COMMUNITY FLOODPLAIN - FUTURE CONDITIONS", "DATE": "2015-09-02T00:00:00", "Shape_Leng": 41503.363717799999, "Shape_Area": 7043180.2937899996, "distance_to_fire_ft": 13098.380613921812 }, "geometry": { "type": "LineString", "coordinates": [ [ 1439518.330372850876302, 544400.749650250072591 ], [ 1439153.161155683221295, 544112.221027838415466 ], [ 1439141.488934927154332, 544102.914616002934054 ], [ 1439131.218614257173613, 544092.081304342485964 ], [ 1439122.547371761407703, 544079.929753838456236 ], [ 1439115.643186098663136, 544066.6942160212202 ], [ 1439110.638931007822976, 544052.629939689184539 ], [ 1439107.631063002860174, 544038.007921669632196 ] ] } },
{ "type": "Feature", "properties": { "OBJECTID": 18741568, "ENABLED": 1, "E911": 14343, "LASTEDITDATE": 1738664917000, "DATEADDED": 946512000000, "USERNAME": "WISMESE", "ACTIONTYPE": "ModifyCL", "PREFIXDIRECTION": null, "STREETNAME": "BERRYHILL", "STANDTYPE": "RD", "SUFFIX": null, "STREETTYPE": "RD", "WHOLESTNAME": "Berryhill Rd", "LL_ADD": 1401, "UL_ADD": 1599, "LR_ADD": 1400, "UR_ADD": 1598, "LBLOCKMIN": 1401, "RBLOCKMIN": 1400, "LBLOCKMAX": 1599, "RBLOCKMAX": 1598, "LSTREETCODE": 632, "RSTREETCODE": 632, "L_ZIPCODE": 28208, "R_ZIPCODE": 28208, "L_JURIS": "CHAR", "R_JURIS": "CHAR", "LCOUNTY": "MECK", "RCOUNTY": "MECK", "SUBDIVISIONNAME": null, "SUBDIVISIONPHASE": null, "ROADTYPE": 1, "STREETCLASS": "PU", "MARK": null, "GPS_STAT": "Needed", "TOPO": null, "LUESAFLAG": null, "STNAMECHANGE": null, "BARRIER": 0, "PREVE911": null, "ORIGE911": null, "LIFECYCLESTATUS": "Active", "DIVIDED": 0, "SURFACETYPE": 2, "NUMBEROFLANES": 2, "HOVLANE": 0, "THOROUGHFARETYPE": "EXCOLLMJ", "SPEEDLIMIT": 25, "PAVEMENTWIDTH": 26.0, "ONEWAY": 0, "SPEEDHUMP": 0, "MEDIAN": 0, "HANSENSTATUS": "Other", "COMPTYPE": 68, "COMPKEY": 88698.0, "UNITID": "906", "UNITID2": "125", "FUNITID": null, "TUNITID": null, "LENGTH": null, "ADDRESSNUMBERS": "NON", "CFCC": "A21", "MAINT_BY": "CITY", "PAVEMENT_RATING": null, "LOAD_STATUS": null, "FULL_NAME": "1400  - 1598 BERRYHILL RD", "SHAPE.STLength()": 722.84006824028359, "index_right": 152, "STATUS": "EFFECTIVE", "FLD_ZONE": "COMMUNITY FLOODPLAIN - FUTURE CONDITIONS", "DATE": "2015-09-02T00:00:00", "Shape_Leng": 41503.363717799999, "Shape_Area": 7043180.2937899996, "distance_to_fire_ft": 13000.475998808166 }, "geometry": { "type": "LineString", "coordinates": [ [ 1439762.081197692081332, 545058.416642001713626 ], [ 1439720.259102849522606, 544776.321405673981644 ], [ 1439710.375592438038439, 544729.364150501205586 ], [ 1439698.015380932483822, 544682.99744533339981 ], [ 1439683.212589021772146, 544637.351539249764755 ], [ 1439666.009211343945935, 544592.555369004607201 ], [ 1439654.006282593589276, 544564.928455755929463 ], [ 1439641.467921850038692, 544538.495437743025832 ], [ 1439626.829171594697982, 544513.165435916860588 ], [ 1439610.185832183109596, 544489.105116588063538 ], [ 1439591.647811512462795, 544466.472287830663845 ], [ 1439571.336828511441126, 544445.415899499552324 ], [ 1439518.330372850876302, 544400.749650250072591 ] ] } },
{ "type": "Feature", "properties": { "OBJECTID": 18741794, "ENABLED": 1, "E911": 16956, "LASTEDITDATE": 1604040532000, "DATEADDED": 946512000000, "USERNAME": "SCASTONGIA", "ACTIONTYPE": "New", "PREFIXDIRECTION": null, "STREETNAME": "BILTMORE", "STANDTYPE": "DR", "SUFFIX": null, "STREETTYPE": "DR", "WHOLESTNAME": "Biltmore Dr", "LL_ADD": 1401, "UL_ADD": 1699, "LR_ADD": 1400, "UR_ADD": 1698, "LBLOCKMIN": 0, "RBLOCKMIN": 0, "LBLOCKMAX": 0, "RBLOCKMAX": 0, "LSTREETCODE": 685, "RSTREETCODE": 685, "L_ZIPCODE": 28207, "R_ZIPCODE": 28207, "L_JURIS": "CHAR", "R_JURIS": "CHAR", "LCOUNTY": "MECK", "RCOUNTY": "MECK", "SUBDIVISIONNAME": null, "SUBDIVISIONPHASE": null, "ROADTYPE": 1, "STREETCLASS": "PU", "MARK": null, "GPS_STAT": "Needed", "TOPO": null, "LUESAFLAG": null, "STNAMECHANGE": null, "BARRIER": 0, "PREVE911": null, "ORIGE911": null, "LIFECYCLESTATUS": "Active", "DIVIDED": 0, "SURFACETYPE": 2, "NUMBEROFLANES": 2, "HOVLANE": 0, "THOROUGHFARETYPE": "LOCAL", "SPEEDLIMIT": 35, "PAVEMENTWIDTH": 21.0, "ONEWAY": 0, "SPEEDHUMP": 0, "MEDIAN": 0, "HANSENSTATUS": "Added", "COMPTYPE": 68, "COMPKEY": 88891.0, "UNITID": "969", "UNITID2": "20", "FUNITID": null, "TUNITID": null, "LENGTH": null, "ADDRESSNUMBERS": "NON", "CFCC": "A41", "MAINT_BY": "CITY", "PAVEMENT_RATING": 82.0, "LOAD_STATUS": null, "FULL_NAME": "1400  - 1698 BILTMORE DR", "SHAPE.STLength()": 1565.3180797767091, "index_right": 219, "STATUS": "EFFECTIVE", "FLD_ZONE": "COMMUNITY FLOODPLAIN - FUTURE CONDITIONS", "DATE": "2014-02-19T00:00:00", "Shape_Leng": 30189.707806, "Shape_Area": 5800748.9217800004, "distance_to_fire_ft": 12896.242667293584 }, "geometry": { "type": "LineString", "coordinates": [ [ 1455886.49809594778344, 528708.91587666363921 ], [ 1455934.497343780472875, 528561.165844089933671 ], [ 1455981.413588542724028, 528418.165802007773891 ], [ 1456013.91352354362607, 528314.832675337907858 ], [ 1456051.330443462356925, 528198.332908334909007 ], [ 1456074.998047043802217, 528126.582723760278895 ], [ 1456095.497349876910448, 528062.749518089811318 ], [ 1456153.497233874863014, 527883.915886260918342 ], [ 1456190.081150211161003, 527772.332776097464375 ], [ 1456232.748059621080756, 527638.332716009928845 ], [ 1456274.414314871886745, 527510.332643935922533 ], [ 1456338.831180792069063, 527310.582715347525664 ], [ 1456369.747457541525364, 527220.082896356587298 ] ] } }
]
}
